NORAD_CAT_ID,OBJECT_NAME,OBJECT_TYPE,EPOCH,MEAN_MOTION,ECCENTRICITY,INCLINATION,RA_OF_ASC_NODE,ARG_OF_PERICENTER,MEAN_ANOMALY,BSTAR,MEAN_MOTION_DOT,MEAN_MOTION_DDOT,TLE_LINE0,TLE_LINE1,TLE_LINE2,SEMIMAJOR_AXIS,PERIOD,APOGEE,PERIGEE,DECAYED
54761.0,STARLINK-5202,PAYLOAD,2024-04-06 14:19:49,15.08839056,0.0001454,53.2161,316.1705,84.7628,275.353,0.00015982,2.256e-05,0.0,0 STARLINK-5202,1 54761U 22175D   24097.59709715  .00002256  00000-0  15982-3 0  9998,2 54761  53.2161 316.1705 0001454  84.7628 275.3530 15.08839056 73926,6917.883,95.438,540.754,538.742,0.0
54761.0,STARLINK-5202,PAYLOAD,2024-04-06 22:16:45,15.08837415,0.000145,53.2164,314.6822,84.9817,275.134,1.5587e-05,-4e-07,0.0,0 STARLINK-5202,1 54761U 22175D   24097.92830173 -.00000040  00000-0  15587-4 0  9990,2 54761  53.2164 314.6822 0001450  84.9817 275.1340 15.08837415 73979,6917.888,95.438,540.756,538.75,0.0
54761.0,STARLINK-5202,PAYLOAD,2024-04-07 07:49:03,15.08841446,0.0001446,53.2164,312.8979,86.1445,273.9712,4.4111e-05,4.14e-06,0.0,0 STARLINK-5202,1 54761U 22175D   24098.32573853  .00000414  00000-0  44111-4 0  9993,2 54761  53.2164 312.8979 0001446  86.1445 273.9712 15.08841446 74034,6917.876,95.437,540.741,538.741,0.0
54761.0,STARLINK-5202,PAYLOAD,2024-04-07 20:32:08,15.08846207,0.0001457,53.2179,310.5172,92.4568,267.6591,1.2102e-05,-9.5e-07,0.0,0 STARLINK-5202,1 54761U 22175D   24098.85565518 -.00000095  00000-0  12102-4 0  9991,2 54761  53.2179 310.5172 0001457  92.4568 267.6591 15.08846207 71951,6917.861,95.437,540.734,538.718,0.0
54761.0,STARLINK-5202,PAYLOAD,2024-04-08 07:39:50,15.08845762,0.0001371,53.2178,308.4368,85.0982,275.0167,3.659e-05,2.95e-06,0.0,0 STARLINK-5202,1 54761U 22175D   24099.31933409  .00000295  00000-0  36590-4 0  9999,2 54761  53.2178 308.4368 0001371  85.0982 275.0167 15.08845762 74181,6917.863,95.437,540.676,538.779,0.0
54761.0,STARLINK-5202,PAYLOAD,2024-04-08 20:22:56,15.08830858,0.0001319,53.2177,306.0575,86.6316,273.4827,0.00021857,3.191e-05,0.0,0 STARLINK-5202,1 54761U 22175D   24099.84926123  .00003191  00000-0  21857-3 0  9999,2 54761  53.2177 306.0575 0001319  86.6316 273.4827 15.08830858 72109,6917.908,95.438,540.686,538.861,0.0
54761.0,STARLINK-5202,PAYLOAD,2024-04-08 23:33:42,15.08840723,0.000137,53.2173,305.4622,89.551,270.5639,7.4379e-05,8.96e-06,0.0,0 STARLINK-5202,1 54761U 22175D   24099.98173715  .00000896  00000-0  74379-4 0  9992,2 54761  53.2173 305.4622 0001370  89.5510 270.5639 15.08840723 74288,6917.878,95.438,540.691,538.795,0.0
54761.0,STARLINK-5202,PAYLOAD,2024-04-09 20:13:43,15.08836273,0.0001328,53.2158,301.5976,85.6512,274.4632,2.1563e-05,5.5e-07,0.0,0 STARLINK-5202,1 54761U 22175D   24100.84286295  .00000055  00000-0  21563-4 0  9992,2 54761  53.2158 301.5976 0001328  85.6512 274.4632 15.08836273 72258,6917.892,95.438,540.675,538.838,0.0
54761.0,STARLINK-5202,PAYLOAD,2024-04-10 13:42:57,15.08838532,0.0001233,53.2102,298.3255,86.0543,274.059,6.6016e-05,7.63e-06,0.0,0 STARLINK-5202,1 54761U 22175D   24101.57150024  .00000763  00000-0  66016-4 0  9991,2 54761  53.2102 298.3255 0001233  86.0543 274.0590 15.08838532 74525,6917.885,95.438,540.603,538.897,0.0
54761.0,STARLINK-5202,PAYLOAD,2024-04-10 20:04:29,15.08842736,0.0001276,53.2164,297.1372,83.8669,276.2469,0.00013439,1.852e-05,0.0,0 STARLINK-5202,1 54761U 22175D   24101.83645638  .00001852  00000-0  13439-3 0  9990,2 54761  53.2164 297.1372 0001276  83.8669 276.2469 15.08842736 72406,6917.872,95.437,540.62,538.854,0.0
54761.0,STARLINK-5202,PAYLOAD,2024-04-11 11:58:21,15.08834322,0.0001424,53.2164,294.1651,91.0881,269.0274,6.6401e-05,7.69e-06,0.0,0 STARLINK-5202,1 54761U 22175D   24102.49886431  .00000769  00000-0  66401-4 0  9995,2 54761  53.2164 294.1651 0001424  91.0881 269.0274 15.08834322 72502,6917.898,95.438,540.748,538.778,0.0
54761.0,STARLINK-5202,PAYLOAD,2024-04-11 19:55:19,15.08810501,0.0001378,53.2157,292.6756,121.8069,238.3057,-0.00018016,-3.152e-05,0.0,0 STARLINK-5202,1 54761U 22175D   24102.83008537 -.00003152  00000-0 -18016-3 0  9995,2 54761  53.2157 292.6756 0001378 121.8069 238.3057 15.08810501 72557,6917.971,95.439,540.789,538.882,0.0
54761.0,STARLINK-5202,PAYLOAD,2024-04-11 23:06:03,15.08839535,0.0001201,53.2154,292.0806,119.0252,241.086,6.1173e-05,6.86e-06,0.0,0 STARLINK-5202,1 54761U 22175D   24102.96254160  .00000686  00000-0  61173-4 0  9994,2 54761  53.2154 292.0806 0001201 119.0252 241.0860 15.08839535 72575,6917.882,95.438,540.578,538.916,0.0
54761.0,STARLINK-5202,PAYLOAD,2024-04-13 11:39:55,15.08838563,0.0001642,53.2147,285.2414,94.4644,265.6535,0.0001285,1.758e-05,0.0,0 STARLINK-5202,1 54761U 22175D   24104.48606439  .00001758  00000-0  12850-3 0  9991,2 54761  53.2147 285.2414 0001642  94.4644 265.6535 15.08838563 72803,6917.885,95.438,540.886,538.614,0.0
54761.0,STARLINK-5202,PAYLOAD,2024-04-13 19:36:51,15.08846985,0.0001423,53.216,283.7556,109.3058,250.8088,0.00017202,2.451e-05,0.0,0 STARLINK-5202,1 54761U 22175D   24104.81725852  .00002451  00000-0  17202-3 0  9996,2 54761  53.2160 283.7556 0001423 109.3058 250.8088 15.08846985 75012,6917.859,95.437,540.708,538.74,0.0
54761.0,STARLINK-5202,PAYLOAD,2024-04-14 11:30:43,15.08841538,0.0001784,53.2177,280.7842,66.1081,294.0098,8.3019e-05,1.033e-05,0.0,0 STARLINK-5202,1 54761U 22175D   24105.47966660  .00001033  00000-0  83019-4 0  9998,2 54761  53.2177 280.7842 0001784  66.1081 294.0098 15.08841538 72951,6917.876,95.437,540.975,538.507,0.0
54761.0,STARLINK-5202,PAYLOAD,2024-04-14 17:52:15,15.08843994,0.0001663,53.2174,279.5935,66.9847,293.132,9.8096e-05,1.274e-05,0.0,0 STARLINK-5202,1 54761U 22175D   24105.74462490  .00001274  00000-0  98096-4 0  9998,2 54761  53.2174 279.5935 0001663  66.9847 293.1320 15.08843994 75152,6917.868,95.437,540.884,538.583,0.0
54761.0,STARLINK-5202,PAYLOAD,2024-04-15 14:32:15,15.08846849,0.0001469,53.2161,275.7266,83.1637,276.9522,0.00011371,1.523e-05,0.0,0 STARLINK-5202,1 54761U 22175D   24106.60574026  .00001523  00000-0  11371-3 0  9990,2 54761  53.2161 275.7266 0001469  83.1637 276.9522 15.08846849 75284,6917.859,95.437,540.741,538.708,0.0
54761.0,STARLINK-5202,PAYLOAD,2024-04-16 14:23:02,15.08867669,0.0001684,53.2154,271.2644,95.629,264.4894,0.00043918,6.714e-05,0.0,0 STARLINK-5202,1 54761U 22175D   24107.59932946  .00006714  00000-0  43918-3 0  9997,2 54761  53.2154 271.2644 0001684  95.6290 264.4894 15.08867669 75433,6917.796,95.436,540.826,538.496,0.0
54761.0,STARLINK-5202,PAYLOAD,2024-04-16 17:33:47,15.08875972,0.0001607,53.216,270.6699,79.0559,281.0614,0.00054987,8.483e-05,0.0,0 STARLINK-5202,1 54761U 22175D   24107.73180504  .00008483  00000-0  54987-3 0  9991,2 54761  53.2160 270.6699 0001607  79.0559 281.0614 15.08875972 73295,6917.77,95.435,540.747,538.524,0.0
54761.0,STARLINK-5202,PAYLOAD,2024-04-17 11:03:04,15.08831008,0.0001685,53.2158,267.3987,75.7898,284.3281,-0.00010751,-1.998e-05,0.0,0 STARLINK-5202,1 54761U 22175D   24108.46046671 -.00001998  00000-0 -10751-3 0  9995,2 54761  53.2158 267.3987 0001685  75.7898 284.3281 15.08831008 73401,6917.908,95.438,540.939,538.607,0.0
54761.0,STARLINK-5202,PAYLOAD,2024-04-17 14:13:50,15.08824059,0.0001083,53.216,266.8039,109.6415,250.4694,-0.00021077,-3.639e-05,0.0,0 STARLINK-5202,1 54761U 22175D   24108.59294894 -.00003639  00000-0 -21077-3 0  9998,2 54761  53.2160 266.8039 0001083 109.6415 250.4694 15.08824059 75581,6917.929,95.439,540.543,539.045,0.0
54761.0,STARLINK-5202,PAYLOAD,2024-04-17 17:24:37,15.08822719,0.0001356,53.2162,266.2092,106.369,253.7451,-0.00024912,-4.249e-05,0.0,0 STARLINK-5202,1 54761U 22175D   24108.72543060 -.00004249  00000-0 -24912-3 0  9994,2 54761  53.2162 266.2092 0001356 106.3690 253.7451 15.08822719 75609,6917.933,95.439,540.736,538.86,0.0
54761.0,STARLINK-5202,PAYLOAD,2024-04-18 10:53:51,15.08839178,0.0001197,53.2148,262.9338,110.3048,249.8072,-0.00021232,-3.665e-05,0.0,0 STARLINK-5202,1 54761U 22175D   24109.45406661 -.00003665  00000-0 -21232-3 0  9993,2 54761  53.2148 262.9338 0001197 110.3048 249.8072 15.08839178 73558,6917.883,95.438,540.576,538.92,0.0
54761.0,STARLINK-5202,PAYLOAD,2024-04-18 14:04:37,15.08839919,0.0001782,53.216,262.3429,56.0615,304.0546,-0.00012496,-2.276e-05,0.0,0 STARLINK-5202,1 54761U 22175D   24109.58654816 -.00002276  00000-0 -12496-3 0  9993,2 54761  53.2160 262.3429 0001782  56.0615 304.0546 15.08839919 75738,6917.881,95.438,540.978,538.513,0.0
54761.0,STARLINK-5202,PAYLOAD,2024-04-18 17:15:23,15.08855737,0.0001494,53.2161,261.7462,96.321,263.7953,6.8095e-05,7.96e-06,0.0,0 STARLINK-5202,1 54761U 22175D   24109.71901651  .00000796  00000-0  68095-4 0  9990,2 54761  53.2161 261.7462 0001494  96.3210 263.7953 15.08855737 73598,6917.832,95.437,540.731,538.664,0.0
54761.0,STARLINK-5202,PAYLOAD,2024-04-19 10:44:38,15.0883543,0.0001182,53.2148,258.4747,104.164,255.9484,0.00027965,4.165e-05,0.0,0 STARLINK-5202,1 54761U 22175D   24110.44767179  .00004165  00000-0  27965-3 0  9991,2 54761  53.2148 258.4747 0001182 104.1640 255.9484 15.08835430 73704,6917.894,95.438,540.577,538.942,0.0
54761.0,STARLINK-5202,PAYLOAD,2024-04-19 13:55:25,15.08837155,0.0001461,53.2156,257.8802,102.6535,257.462,0.00029902,4.474e-05,0.0,0 STARLINK-5202,1 54761U 22175D   24110.58015212  .00004474  00000-0  29902-3 0  9996,2 54761  53.2156 257.8802 0001461 102.6535 257.4620 15.08837155 75880,6917.889,95.438,540.765,538.743,0.0
54761.0,STARLINK-5202,PAYLOAD,2024-04-19 18:41:34,15.08852428,0.0001522,53.2158,256.9877,93.7155,266.4011,0.00041085,6.259e-05,0.0,0 STARLINK-5202,1 54761U 22175D   24110.77886780  .00006259  00000-0  41085-3 0  9992,2 54761  53.2158 256.9877 0001522  93.7155 266.4011 15.08852428 73758,6917.842,95.437,540.76,538.655,0.0
54761.0,STARLINK-5202,PAYLOAD,2024-04-20 09:00:01,15.08848119,0.0001425,53.2161,254.3135,125.914,234.1984,6.9167e-05,8.13e-06,0.0,0 STARLINK-5202,1 54761U 22175D   24111.37502226  .00000813  00000-0  69167-4 0  9991,2 54761  53.2161 254.3135 0001425 125.9140 234.1984 15.08848119 73848,6917.856,95.437,540.706,538.735,0.0
